IRIDIUM 7 [-]           
1 24793U 97020B   23229.86488557  .00000387  00000+0  12960-3 0  9990
2 24793  86.3926  97.2544 0002166  91.4845 268.6599 14.34866698376105
IRIDIUM 5 [-]           
1 24795U 97020D   23230.17432290  .00002801  00000+0  28466-3 0  9992
2 24795  86.3953  29.2506 0129625   0.4856 359.6468 14.84266672385952
IRIDIUM 4 [-]           
1 24796U 97020E   23229.64699534  .00000457  00000+0  15127-3 0  9994
2 24796  86.3919  94.6666 0001988  88.0469 272.0955 14.35769438376392
IRIDIUM 914 [-]         
1 24836U 97030A   23230.13924393  .00000455  00000+0  13964-3 0  9995
2 24836  86.3909 105.0172 0000261  90.8822 269.2407 14.39561763372933
IRIDIUM 16 [-]          
1 24841U 97030F   23230.15641548  .00000476  00000+0  15255-3 0  9999
2 24841  86.4050 126.2008 0004302  93.1250 267.0440 14.37460849371114
IRIDIUM 911 [-]         
1 24842U 97030G   23230.15368748  .00000608  00000+0  16515-3 0  9995
2 24842  86.4475 125.5773 0014904 157.6674 202.5180 14.45961468378330
IRIDIUM 17 [-]          
1 24870U 97034B   23230.35187452  .00000550  00000+0  18076-3 0  9993
2 24870  86.4020 155.7630 0003744  67.8983 292.2611 14.36560727367526
IRIDIUM 920 [-]         
1 24871U 97034C   23229.82474461  .00000558  00000+0  16974-3 0  9996
2 24871  86.4011 136.8035 0013376 121.9323 238.3179 14.40275093370458
